{"type": "FeatureCollection", "features": [ {"type": "Feature", "properties": {"norad_id": 33153, "name": "INTELSAT 25 (IS-25)", "group": "intelsat", "lat": 2.0889335287859723, "lon": 149.28710086773344, "alt_km": 35796.34326285667, "timestamp": "2025-12-24T05:51:19.273066+00:00", "meta": {"OBJECT_NAME": "INTELSAT 25 (IS-25)", "OBJECT_ID": "2008-034A", "EPOCH": "2025-12-23T21:32:33.609408", "MEAN_MOTION": 1.00272456, "ECCENTRICITY": 0.00048535, "INCLINATION": 2.2546, "RA_OF_ASC_NODE": 82.53, "ARG_OF_PERICENTER": 188.0856, "MEAN_ANOMALY": 113.7071, "EPHEMERIS_TYPE": 0, "CLASSIFICATION_TYPE": "U", "NORAD_CAT_ID": 33153, "ELEMENT_SET_NO": 999, "REV_AT_EPOCH": 6393, "BSTAR": 0, "MEAN_MOTION_DOT": -2.04e-06, "MEAN_MOTION_DDOT": 0}, "tle": {"line1": "1 33153U 08034A   25357.89761122 -.00000204  00000+0  00000+0 0  9993", "line2": "2 33153   2.2546  82.5300 0004853 188.0856 113.7071  1.00272456 63938"}}, "geometry": {"type": "Point", "coordinates": [149.28710086773344, 2.0889335287859723]}}, {"type": "Feature", "properties": {"norad_id": 33376, "name": "GALAXY 19 (G-19)", "group": "intelsat", "lat": 0.022255097801027038, "lon": 83.84794179082186, "alt_km": 35797.13635897784, "timestamp": "2025-12-24T05:51:19.273081+00:00", "meta": {"OBJECT_NAME": "GALAXY 19 (G-19)", "OBJECT_ID": "2008-045A", "EPOCH": "2025-12-23T16:05:42.260928", "MEAN_MOTION": 1.00270858, "ECCENTRICITY": 0.00026541, "INCLINATION": 0.0449, "RA_OF_ASC_NODE": 265.3019, "ARG_OF_PERICENTER": 15.087, "MEAN_ANOMALY": 316.4894, "EPHEMERIS_TYPE": 0, "CLASSIFICATION_TYPE": "U", "NORAD_CAT_ID": 33376, "ELEMENT_SET_NO": 999, "REV_AT_EPOCH": 6314, "BSTAR": 0, "MEAN_MOTION_DOT": -1.18e-06, "MEAN_MOTION_DDOT": 0}, "tle": {"line1": "1 33376U 08045A   25357.67062802 -.00000118  00000+0  00000+0 0  9991", "line2": "2 33376   0.0449 265.3019 0002654  15.0870 316.4894  1.00270858 63145"}}, "geometry": {"type": "Point", "coordinates": [83.84794179082186, 0.022255097801027038]}}, {"type": "Feature", "properties": {"norad_id": 35493, "name": "FM-5", "group": "intelsat", "lat": 0.020295098696753736, "lon": 94.69352900544136, "alt_km": 35784.699411212474, "timestamp": "2025-12-24T05:51:19.273093+00:00", "meta": {"OBJECT_NAME": "FM-5", "OBJECT_ID": "2009-034A", "EPOCH": "2025-12-23T19:34:14.466144", "MEAN_MOTION": 1.00270184, "ECCENTRICITY": 9.555e-05, "INCLINATION": 0.0218, "RA_OF_ASC_NODE": 291.4107, "ARG_OF_PERICENTER": 225.924, "MEAN_ANOMALY": 142.6851, "EPHEMERIS_TYPE": 0, "CLASSIFICATION_TYPE": "U", "NORAD_CAT_ID": 35493, "ELEMENT_SET_NO": 999, "REV_AT_EPOCH": 4488, "BSTAR": 0, "MEAN_MOTION_DOT": -1.79e-06, "MEAN_MOTION_DDOT": 0}, "tle": {"line1": "1 35493U 09034A   25357.81544521 -.00000179  00000+0  00000+0 0  9998", "line2": "2 35493   0.0218 291.4107 0000955 225.9240 142.6851  1.00270184 44888"}}, "geometry": {"type": "Point", "coordinates": [94.69352900544136, 0.020295098696753736]}}, {"type": "Feature", "properties": {"norad_id": 36097, "name": "INTELSAT 14 (IS-14)", "group": "intelsat", "lat": 0.027070996518651875, "lon": 135.81925746300087, "alt_km": 35796.223763423055, "timestamp": "2025-12-24T05:51:19.273105+00:00", "meta": {"OBJECT_NAME": "INTELSAT 14 (IS-14)", "OBJECT_ID": "2009-064A", "EPOCH": "2025-12-23T21:28:41.480256", "MEAN_MOTION": 1.0026934, "ECCENTRICITY": 0.00025857, "INCLINATION": 0.0124, "RA_OF_ASC_NODE": 3.369, "ARG_OF_PERICENTER": 281.9203, "MEAN_ANOMALY": 84.5532, "EPHEMERIS_TYPE": 0, "CLASSIFICATION_TYPE": "U", "NORAD_CAT_ID": 36097, "ELEMENT_SET_NO": 999, "REV_AT_EPOCH": 5884, "BSTAR": 0, "MEAN_MOTION_DOT": -2.53e-06, "MEAN_MOTION_DDOT": 0}, "tle": {"line1": "1 36097U 09064A   25357.89492454 -.00000253  00000+0  00000+0 0  9990", "line2": "2 36097   0.0124   3.3690 0002585 281.9203  84.5532  1.00269340 58847"}}, "geometry": {"type": "Point", "coordinates": [135.81925746300087, 0.027070996518651875]}}, {"type": "Feature", "properties": {"norad_id": 36106, "name": "INTELSAT 15 (IS-15)", "group": "intelsat", "lat": -0.03657818650759934, "lon": -94.00337180116769, "alt_km": 35777.18838978432, "timestamp": "2025-12-24T05:51:19.273116+00:00", "meta": {"OBJECT_NAME": "INTELSAT 15 (IS-15)", "OBJECT_ID": "2009-067A", "EPOCH": "2025-12-23T22:05:52.918368", "MEAN_MOTION": 1.00270944, "ECCENTRICITY": 0.00022846, "INCLINATION": 0.0165, "RA_OF_ASC_NODE": 21.0753, "ARG_OF_PERICENTER": 263.8363, "MEAN_ANOMALY": 224.4226, "EPHEMERIS_TYPE": 0, "CLASSIFICATION_TYPE": "U", "NORAD_CAT_ID": 36106, "ELEMENT_SET_NO": 999, "REV_AT_EPOCH": 3947, "BSTAR": 0, "MEAN_MOTION_DOT": -1.64e-06, "MEAN_MOTION_DDOT": 0}, "tle": {"line1": "1 36106U 09067A   25357.92075137 -.00000164  00000+0  00000+0 0  9994", "line2": "2 36106   0.0165  21.0753 0002284 263.8363 224.4226  1.00270944 39477"}}, "geometry": {"type": "Point", "coordinates": [-94.00337180116769, -0.03657818650759934]}}, {"type": "Feature", "properties": {"norad_id": 36131, "name": "DIRECTV 12", "group": "intelsat", "lat": 0.007882283344383508, "lon": 78.13473963969342, "alt_km": 35786.70960654505, "timestamp": "2025-12-24T05:51:19.273128+00:00", "meta": {"OBJECT_NAME": "DIRECTV 12", "OBJECT_ID": "2009-075A", "EPOCH": "2025-12-23T09:13:01.347168", "MEAN_MOTION": 1.0027066, "ECCENTRICITY": 4.984e-05, "INCLINATION": 0.0172, "RA_OF_ASC_NODE": 109.5707, "ARG_OF_PERICENTER": 230.4139, "MEAN_ANOMALY": 147.732, "EPHEMERIS_TYPE": 0, "CLASSIFICATION_TYPE": "U", "NORAD_CAT_ID": 36131, "ELEMENT_SET_NO": 999, "REV_AT_EPOCH": 4479, "BSTAR": 0, "MEAN_MOTION_DOT": -8.2e-07, "MEAN_MOTION_DDOT": 0}, "tle": {"line1": "1 36131U 09075A   25357.38404337 -.00000082  00000+0  00000+0 0  9998", "line2": "2 36131   0.0172 109.5707 0000498 230.4139 147.7320  1.00270660 44798"}}, "geometry": {"type": "Point", "coordinates": [78.13473963969342, 0.007882283344383508]}}, {"type": "Feature", "properties": {"norad_id": 36397, "name": "INTELSAT 16 (IS-16)", "group": "intelsat", "lat": 0.023468828062406265, "lon": 104.650258611368, "alt_km": 35793.507411636405, "timestamp": "2025-12-24T05:51:19.273140+00:00", "meta": {"OBJECT_NAME": "INTELSAT 16 (IS-16)", "OBJECT_ID": "2010-006A", "EPOCH": "2025-12-23T12:46:10.935264", "MEAN_MOTION": 1.00272728, "ECCENTRICITY": 0.00018836, "INCLINATION": 0.0115, "RA_OF_ASC_NODE": 325.676, "ARG_OF_PERICENTER": 301.9136, "MEAN_ANOMALY": 300.0848, "EPHEMERIS_TYPE": 0, "CLASSIFICATION_TYPE": "U", "NORAD_CAT_ID": 36397, "ELEMENT_SET_NO": 999, "REV_AT_EPOCH": 5789, "BSTAR": 0, "MEAN_MOTION_DOT": -2.24e-06, "MEAN_MOTION_DDOT": 0}, "tle": {"line1": "1 36397U 10006A   25357.53207101 -.00000224  00000+0  00000+0 0  9993", "line2": "2 36397   0.0115 325.6760 0001883 301.9136 300.0848  1.00272728 57890"}}, "geometry": {"type": "Point", "coordinates": [104.650258611368, 0.023468828062406265]}}, {"type": "Feature", "properties": {"norad_id": 37185, "name": "XM-5", "group": "intelsat", "lat": 0.044476167530762736, "lon": 65.62771975848582, "alt_km": 35785.43296507486, "timestamp": "2025-12-24T05:51:19.273152+00:00", "meta": {"OBJECT_NAME": "XM-5", "OBJECT_ID": "2010-053A", "EPOCH": "2025-12-23T09:09:39.170304", "MEAN_MOTION": 1.00270513, "ECCENTRICITY": 0.00022311, "INCLINATION": 0.0683, "RA_OF_ASC_NODE": 270.2666, "ARG_OF_PERICENTER": 239.6694, "MEAN_ANOMALY": 324.4602, "EPHEMERIS_TYPE": 0, "CLASSIFICATION_TYPE": "U", "NORAD_CAT_ID": 37185, "ELEMENT_SET_NO": 999, "REV_AT_EPOCH": 5572, "BSTAR": 0, "MEAN_MOTION_DOT": -2e-08, "MEAN_MOTION_DDOT": 0}, "tle": {"line1": "1 37185U 10053A   25357.38170336 -.00000002  00000+0  00000+0 0  9997", "line2": "2 37185   0.0683 270.2666 0002231 239.6694 324.4602  1.00270513 55728"}}, "geometry": {"type": "Point", "coordinates": [65.62771975848582, 0.044476167530762736]}}, {"type": "Feature", "properties": {"norad_id": 37238, "name": "INTELSAT 17 (IS-17)", "group": "intelsat", "lat": -0.019054149179674337, "lon": -113.18465540182592, "alt_km": 35776.86009222696, "timestamp": "2025-12-24T05:51:19.273164+00:00", "meta": {"OBJECT_NAME": "INTELSAT 17 (IS-17)", "OBJECT_ID": "2010-065B", "EPOCH": "2025-12-23T22:00:23.444064", "MEAN_MOTION": 1.00271483, "ECCENTRICITY": 0.000267, "INCLINATION": 0.0071, "RA_OF_ASC_NODE": 314.686, "ARG_OF_PERICENTER": 326.9011, "MEAN_ANOMALY": 207.1976, "EPHEMERIS_TYPE": 0, "CLASSIFICATION_TYPE": "U", "NORAD_CAT_ID": 37238, "ELEMENT_SET_NO": 999, "REV_AT_EPOCH": 5149, "BSTAR": 0, "MEAN_MOTION_DOT": 2e-07, "MEAN_MOTION_DDOT": 0}, "tle": {"line1": "1 37238U 10065B   25357.91693801  .00000020  00000+0  00000+0 0  9994", "line2": "2 37238   0.0071 314.6860 0002670 326.9011 207.1976  1.00271483 51495"}}, "geometry": {"type": "Point", "coordinates": [-113.18465540182592, -0.019054149179674337]}}, {"type": "Feature", "properties": {"norad_id": 37392, "name": "INTELSAT 28 (IS-28)", "group": "intelsat", "lat": 1.233238557141352, "lon": 149.09758775153696, "alt_km": 35794.09680980101, "timestamp": "2025-12-24T05:51:19.273175+00:00", "meta": {"OBJECT_NAME": "INTELSAT 28 (IS-28)", "OBJECT_ID": "2011-016A", "EPOCH": "2025-12-23T21:32:26.121120", "MEAN_MOTION": 1.00272343, "ECCENTRICITY": 0.00036909, "INCLINATION": 1.3517, "RA_OF_ASC_NODE": 84.9343, "ARG_OF_PERICENTER": 186.2256, "MEAN_ANOMALY": 112.9214, "EPHEMERIS_TYPE": 0, "CLASSIFICATION_TYPE": "U", "NORAD_CAT_ID": 37392, "ELEMENT_SET_NO": 999, "REV_AT_EPOCH": 5152, "BSTAR": 0, "MEAN_MOTION_DOT": -2.04e-06, "MEAN_MOTION_DDOT": 0}, "tle": {"line1": "1 37392U 11016A   25357.89752455 -.00000204  00000+0  00000+0 0  9995", "line2": "2 37392   1.3517  84.9343 0003690 186.2256 112.9214  1.00272343 51527"}}, "geometry": {"type": "Point", "coordinates": [149.09758775153696, 1.233238557141352]}}]}